[Satellite]
VERSION=1.1
NAME=SL-14 R/B
NICKNAME=SL-14 R/B
TLE1=1 18153U 87055B   22342.22718333  .00000425  00000+0  48572-4 0  9995
TLE2=2 18153  82.5013  26.4394 0020788 337.7477  22.2834 14.83581994893766
STATUS=0
